{
  "type": "FeatureCollection",
  "features": [
    {
      "type": "Feature",
      "properties": {
        "station_id": 1,
        "name": "Estación Avenida Constitución",
        "pm25_avg": 9.3,
        "pm10_avg": 17.2,
        "no2_avg": 15.4,
        "o3_avg": 37.2,
        "aqi_score": 36.7,
        "aqi_level": "Good",
        "color": "green",
        "latest_reading": "2026-10-10 24:00"
      },
      "geometry": {
        "type": "Point",
        "coordinates": [
          -5.673428,
          43.529806
        ]
      }
    },
    {
      "type": "Feature",
      "properties": {
        "station_id": 10,
        "name": "Estación de Montevil",
        "pm25_avg": 6.7,
        "pm10_avg": 11.4,
        "no2_avg": 10.6,
        "o3_avg": 40.6,
        "aqi_score": 25.3,
        "aqi_level": "Good",
        "color": "green",
        "latest_reading": "2026-10-10 24:00"
      },
      "geometry": {
        "type": "Point",
        "coordinates": [
          -5.672499,
          43.517315
        ]
      }
    },
    {
      "type": "Feature",
      "properties": {
        "station_id": 11,
        "name": "Estación Santa Bárbara",
        "pm25_avg": 4.7,
        "pm10_avg": 16.0,
        "no2_avg": 10.2,
        "o3_avg": 41.2,
        "aqi_score": 25.4,
        "aqi_level": "Good",
        "color": "green",
        "latest_reading": "2026-10-10 24:00"
      },
      "geometry": {
        "type": "Point",
        "coordinates": [
          -5.690707,
          43.520957
        ]
      }
    },
    {
      "type": "Feature",
      "properties": {
        "station_id": 18,
        "name": "Estación El Lauredal",
        "pm25_avg": 9.7,
        "pm10_avg": 20.8,
        "no2_avg": 6.9,
        "o3_avg": 42.6,
        "aqi_score": 32.6,
        "aqi_level": "Good",
        "color": "green",
        "latest_reading": "2026-10-10 24:00"
      },
      "geometry": {
        "type": "Point",
        "coordinates": [
          -5.701243,
          43.542791
        ]
      }
    },
    {
      "type": "Feature",
      "properties": {
        "station_id": 2,
        "name": "Estación Avenida Argentina",
        "pm25_avg": 9.3,
        "pm10_avg": 17.9,
        "no2_avg": 15.0,
        "o3_avg": 32.9,
        "aqi_score": 36.8,
        "aqi_level": "Good",
        "color": "green",
        "latest_reading": "2026-10-10 24:00"
      },
      "geometry": {
        "type": "Point",
        "coordinates": [
          -5.69893,
          43.538869
        ]
      }
    },
    {
      "type": "Feature",
      "properties": {
        "station_id": 3,
        "name": "Estación Avenida Hermanos Felgueroso",
        "pm25_avg": null,
        "pm10_avg": null,
        "no2_avg": null,
        "o3_avg": null,
        "aqi_score": null,
        "aqi_level": "No data",
        "color": "gray",
        "latest_reading": null
      },
      "geometry": {
        "type": "Point",
        "coordinates": [
          -5.658123,
          43.535061
        ]
      }
    },
    {
      "type": "Feature",
      "properties": {
        "station_id": 4,
        "name": "Estación Avenida Castilla",
        "pm25_avg": null,
        "pm10_avg": 14.7,
        "no2_avg": 11.0,
        "o3_avg": 39.5,
        "aqi_score": 28.5,
        "aqi_level": "Good",
        "color": "green",
        "latest_reading": "2026-10-10 24:00"
      },
      "geometry": {
        "type": "Point",
        "coordinates": [
          -5.645951,
          43.53794
        ]
      }
    }
  ]
}